EXPRESS-AMU1            
1 41191U 15082A   23046.36577218  .00000160  00000+0  00000+0 0  9991
2 41191   0.0076 175.0376 0002680 165.3704 332.4568  1.00275337 26290
GAOFEN 4                
1 41194U 15083A   23045.85768061 -.00000328  00000+0  00000+0 0  9993
2 41194   0.1080 156.1850 0001959 202.1082 200.7719  1.00269506 26312
BELINTERSAT-1           
1 41238U 16001A   23046.24840818  .00000113  00000+0  00000+0 0  9999
2 41238   0.0357 288.2814 0001312 312.7613  44.8627  1.00269219 26018
IRNSS-1E                
1 41241U 16003A   23045.65092610 -.00000302  00000+0  00000+0 0  9999
2 41241  30.5217  80.8685 0020425 189.0013 220.6952  1.00273880 25868
EUTELSAT 9B             
1 41310U 16005A   23045.83841718  .00000068  00000+0  00000+0 0  9997
2 41310   0.0270  58.7789 0004000 236.0381 160.5619  1.00270762 25900
SES-9                   
1 41380U 16013A   23046.43194413 -.00000340  00000+0  00000+0 0  9997
2 41380   0.0458 281.5683 0001436 117.5444   9.8434  1.00269945 25548
EUTELSAT 65 WEST A      
1 41382U 16014A   23046.39733966 -.00000271  00000+0  00000+0 0  9990
2 41382   0.0739 310.8482 0001926  36.2748 235.8073  1.00268180 25431
IRNSS-1F                
1 41384U 16015A   23046.12987573  .00000164  00000+0  00000+0 0  9999
2 41384   2.5484 140.4480 0023634 185.0905 258.5853  1.00277986 25443
BEIDOU IGSO-6           
1 41434U 16021A   23046.37224438 -.00000129  00000+0  00000+0 0  9995
2 41434  58.4537  50.3250 0049203 225.2985  99.8234  1.00278731 25265
IRNSS-1G                
1 41469U 16027A   23046.01507889 -.00000331  00000+0  00000+0 0  9999
2 41469   2.4562 142.6503 0004504 266.2179 230.7378  1.00265275 24950
JCSAT-2B                
1 41471U 16028A   23046.47194244 -.00000161  00000+0  00000+0 0  9991
2 41471   0.0167 109.8486 0000886 230.5098 128.7134  1.00270790 24871
THAICOM 8               
1 41552U 16031A   23046.41021786 -.00000117  00000+0  00000+0 0  9990
2 41552   0.0522  46.8698 0003580 336.4626 348.0101  1.00271872 24578
INTELSAT 31 (IS-31)     
1 41581U 16035A   23046.39141247 -.00000145  00000+0  00000+0 0  9999
2 41581   0.0323 242.3765 0002191 321.3146 347.2717  1.00269322 24474
BEIDOU-2 G7             
1 41586U 16037A   23046.59920774 -.00000351  00000+0  00000+0 0  9997
2 41586   1.9257  70.7102 0008363 347.5676  53.2768  1.00273519 24572
ABS-2A (MONGOLSAT-1)    
1 41588U 16038A   23046.42523243 -.00000079  00000+0  00000+0 0  9999
2 41588   0.0182 124.6290 0001158  87.0329 161.3027  1.00271734 24480
EUTELSAT 117 WEST B     
1 41589U 16038B   23046.43311250 -.00000007  00000+0  00000+0 0  9995
2 41589   0.0101 239.4274 0000407  37.6824 266.9549  1.00273558 24494
BRISAT                  
1 41591U 16039A   23045.86657144 -.00000190  00000+0  00000+0 0  9993
2 41591   0.0104 126.3875 0002000 208.0511 272.6141  1.00270039 24391
ECHOSTAR 18             
1 41592U 16039B   23046.39812417 -.00000277  00000+0  00000+0 0  9995
2 41592   0.0169 112.1053 0001254 218.4932 256.5007  1.00272210 24414
MUOS-5                  
1 41622U 16041A   23046.45043723 -.00000108  00000+0  00000+0 0  9998
2 41622   5.0415 299.1389 0193498 242.4772  20.6972  1.00273041 24858
TIANTONG-1 1            
1 41725U 16048A   23046.07191109 -.00000310  00000+0  00000+0 0  9994
2 41725   2.2600   9.5289 0008106 341.6690 280.8432  1.00267164 24053
JCSAT-16                
1 41729U 16050A   23046.50063005 -.00000245  00000+0  00000+0 0  9999
2 41729   0.0385  96.0163 0003825 215.8648 106.5464  1.00252214 23859
USA 270                 
1 41744U 16052A   23038.57923368 -.00000092  00000+0  00000+0 0  9993
2 41744   1.0448  93.0293 0000315  64.7849 342.8202  1.00560453  6452
USA 271                 
1 41745U 16052B   23045.70662385 -.00000007  00000+0  00000+0 0  9992
2 41745   1.0298  92.8519 0010176 284.4914  88.8339  1.00271933  6522
INTELSAT 36 (IS-36)     
1 41747U 16053A   23046.13711042 -.00000018  00000+0  00000+0 0  9990
2 41747   0.0111  58.7987 0000938 311.8866 252.0275  1.00270900 23721
INTELSAT 33E (IS-33E)   
1 41748U 16053B   23046.49400552  .00000054  00000+0  00000+0 0  9990
2 41748   0.0039 275.3120 0001293  60.6947  47.0258  1.00271925 24015
INSAT-3DR               
1 41752U 16054A   23046.42514528 -.00000072  00000+0  00000+0 0  9999
2 41752   0.0816  97.7611 0012939 179.8768  94.5425  1.00271333 23584
GSAT-18                 
1 41793U 16060A   23045.85140473 -.00000070  00000+0  00000+0 0  9999
2 41793   0.0517  96.4694 0001746 212.9122 215.7030  1.00271178 23329
SKY MUSTER 2 (NBN1B)    
1 41794U 16060B   23045.86543829 -.00000238  00000+0  00000+0 0  9999
2 41794   0.0084 146.7619 0001497 187.4951 266.6847  1.00270591 23301
HIMAWARI-9              
1 41836U 16064A   23046.58292064 -.00000271  00000+0  00000+0 0  9999
2 41836   0.0062 333.4985 0001549  44.6374 117.7571  1.00269370 23095
SHIJIAN-17 (SJ-17)      
1 41838U 16065A   23046.69877656 -.00000261  00000+0  00000+0 0  9999
2 41838   2.6409  86.9936 0003953 277.3911 126.7959  1.00268804 23023
GOES 16                 
1 41866U 16071A   23046.39533487 -.00000243  00000+0  00000+0 0  9995
2 41866   0.0825 274.1412 0000694 100.2484 197.8554  1.00271129 22894
TIANLIAN 1-04           
1 41869U 16072A   23045.83938035  .00000038  00000+0  00000+0 0  9996
2 41869   0.1432  93.5964 0020299  37.3217 132.6088  1.00272216 23094
WGS F8 (USA 272)        
1 41879U 16075A   23046.54155662 -.00000199  00000+0  00000+0 0  9995
2 41879   0.0081  94.3179 0000333 352.4363  43.2692  1.00268597 22714
FENGYUN 4A              
1 41882U 16077A   23046.05049564 -.00000322  00000+0  00000+0 0  9998
2 41882   0.1348  80.6773 0005302 338.6320 208.1180  1.00263803 22767
ECHOSTAR 19             
1 41893U 16079A   23046.45843097 -.00000134  00000+0  00000+0 0  9990
2 41893   0.0159 111.1420 0001513 228.5802 233.3738  1.00270779 22522
JCSAT-110A (JCSAT-15)   
1 41903U 16082A   23046.59920743 -.00000347  00000+0  00000+0 0  9991
2 41903   0.0269 111.0774 0001116 216.1411 143.8988  1.00268306 22575
STAR ONE D1             
1 41904U 16082B   23045.81993823 -.00000203  00000+0  00000+0 0  9996
2 41904   0.0132  81.0823 0002289 236.0839  38.5575  1.00272445 22552
TJS-2                   
1 41911U 17001A   23046.42357631 -.00000002  00000+0  00000+0 0  9992
2 41911   0.1608  80.6241 0003550 145.1365 138.3974  1.00274016 22518
SBIRS GEO-4 (USA 273)   
1 41937U 17004A   23046.17978722  .00000138  00000+0  00000+0 0  9994
2 41937   1.9045 325.9682 0002049   4.1017  80.1537  1.00271865 22387
HISPASAT 36W-1          
1 41942U 17006A   23046.40317972 -.00000240  00000+0  00000+0 0  9997
2 41942   0.0308 292.6941 0001112  34.0649 287.5130  1.00272217 22313
TELKOM 3S               
1 41944U 17007A   23046.40882649 -.00000358  00000+0  00000+0 0  9998
2 41944   0.0199 216.7344 0002051 111.7657  81.8036  1.00269805 22007
INTELSAT 32E (IS-32E)   
1 41945U 17007B   23046.40178508 -.00000264  00000+0  00000+0 0  9997
2 41945   0.0141 105.7147 0000249 341.9292 158.9312  1.00269020 22037
ECHOSTAR 23             
1 42070U 17014A   23044.59555486 -.00000046  00000+0  00000+0 0  9995
2 42070   0.0156 112.8827 0001980 208.9717 285.9892  1.00272194 21695
WGS F9 (USA 275)        
1 42075U 17016A   23046.33623709 -.00000092  00000+0  00000+0 0  9991
2 42075   0.0115 122.3741 0000413 319.2140 172.4860  1.00268293 21715
SES-10                  
1 42432U 17017A   23046.39699101 -.00000268  00000+0  00000+0 0  9999
2 42432   0.0169  79.8812 0002732 250.9740 250.2766  1.00268641 21514
CHINASAT 16 (SJ-13)     
1 42662U 17018A   23045.93035534 -.00000345  00000+0  00000+0 0  9994
2 42662   0.0775  93.1934 0005861 167.6750 329.2290  1.00269435 21529
KOREASAT 7              
1 42691U 17023A   23046.03382686 -.00000355  00000+0  00000+0 0  9998
2 42691   0.0264  18.3602 0000801 282.8247 331.6402  1.00272247 21229
SGDC                    
1 42692U 17023B   23045.80635336 -.00000242  00000+0  00000+0 0  9991
2 42692   0.0012  58.7295 0002079 276.2919  24.9496  1.00271382 21234
GSAT-9                  
1 42695U 17024A   23045.82675986 -.00000279  00000+0  00000+0 0  9992
2 42695   0.0764 270.9463 0002048  38.4333 230.1415  1.00272183 21096
INMARSAT 5-F4           
1 42698U 17025A   23046.28868731  .00000081  00000+0  00000+0 0  9999
2 42698   0.0177 106.7236 0000321 232.5606 326.1499  1.00270837 21040
SES-15                  
1 42709U 17026A   23046.52127403  .00000064  00000+0  00000+0 0  9995
2 42709   0.0270 351.2304 0000262  40.8784 171.6382  1.00268711 21975
QZS-2 (MICHIBIKI-2)     
1 42738U 17028A   23045.46229755 -.00000080  00000+0  00000+0 0  9993
2 42738  41.3702 260.7315 0749094 270.0481 281.2093  1.00270322 20916
VIASAT-2                
1 42740U 17029A   23046.39646802 -.00000260  00000+0  00000+0 0  9996
2 42740   0.0297 261.5266 0000163 176.2212 140.1966  1.00272313 20969
EUTELSAT 172B           
1 42741U 17029B   23046.49387174 -.00000002  00000+0  00000+0 0  9996
2 42741   0.0501 150.3775 0000276 304.8406  39.7873  1.00271494 21507
GSAT-19                 
1 42747U 17031A   23046.29424466  .00000131  00000+0  00000+0 0  9991
2 42747   0.0568 279.0533 0003704 117.8433 261.9239  1.00271019 20910
ECHOSTAR 21             
1 42749U 17032A   23046.34068251  .00000075  00000+0  00000+0 0  9993
2 42749   3.4781 312.4747 0002142  13.8072 311.6894  1.00269257 20915
BULGARIASAT-1           
1 42801U 17038A   23045.83702253  .00000018  00000+0  00000+0 0  9995
2 42801   0.0193 100.0047 0002653 224.9425 122.8336  1.00272411 20607
HELLAS-SAT 3            
1 42814U 17040A   23046.29979927  .00000158  00000+0  00000+0 0  9992
2 42814   0.0494  27.4811 0004408 324.6516 299.8010  1.00271227 20647
GSAT-17                 
1 42815U 17040B   23046.10327128 -.00000252  00000+0  00000+0 0  9999
2 42815   0.0549  98.3294 0005452 188.5743 348.6107  1.00271103 20654
